Name,Description,Address,Postcode,"Phone number",Email,Website,"More information from the Care Inspectorate",Location
"Action Group","Services such as personal care, medication, cooking and housework, shopping, and support with social activities and going out.","Norton Park Centre, 57 Albion Road, Edinburgh","EH7 5QY","0131 475 2315",advice@actiongroup.org.uk,"<a href=""http://www.actiongroup.org.uk/services/housing-and-community-support-services-hacss.html"">The Action Group website</a>","<a href=""http://www.scswis.com/index.php?option=com_content&view=article&id=7644&Itemid=489&bereNextPageId=ServiceDetails_action.php&action=displayService&CaseNumber=CS2006128408"">Quality grades and reports</a>","55.961140638957005,-3.1665515899658203"
"Allied Healthcare","Services such as cooking meals, light household duties,Â cleaning and laundry services, shopping, washing and dressing.
","Suite 17, Bonnington Mill Business Centre, 72/3 Newhaven Road, Edinburgh","EH6 5QG","0131 553 6136",edinburgh@alliedhealthcare.com,"<a href=""http://www.alliedhealthcare.com/home-care.aspx"">Allied Healthcare website</a>","<a href=""http://www.scswis.com/index.php?option=com_content&view=article&id=7644&Itemid=489&bereNextPageId=ServiceDetails_action.php&action=displayService&CaseNumber=CS2004076379"">Quality grades and reports</a>","55.971228597800135,-3.1870222091674805"
"Autism Initiatives","Services such as support accessing college or work, and the local community, and support with learning home-based tasks including meal preparation, travelling, and time and money management.","11 Granton Square, Edinburgh","EH5 1HX","0131 551 7260",hos@aiscotland.org.uk,"<a href=""http://www.autisminitiatives.org/what-we-do/autism-outreach-support/"">Autism Initiatives website</a>","<a href=""http://www.scswis.com/index.php?option=com_content&view=article&id=7644&Itemid=489&bereNextPageId=ServiceDetails_action.php&action=displayService&CaseNumber=CS2008175789"">Quality grades and reports</a>","55.98107383057707,-3.2247018814086914"
C-I-C,"Support with shopping, cooking and cleaning, managing money, going to work or college, public transport, social activities and appointments.","CIC, Central Scotland Office, 261 Springhill Parkway, Glasgow","G69 6GA","0131 646 0496",information@c-i-c.co.uk,"<a href=""http://www.c-i-c.co.uk/supported-living"">C-I-C website</a>","<a href=""http://www.scswis.com/index.php?option=com_content&view=article&id=7644&Itemid=489&bereNextPageId=ReportDataDetails_action.php&action=displayReport&repId=CS2004076543"">Quality grades and reports</a>","55.86057394033749,-4.113864898681641"
"Call In Homecare","Services such as assisting with personal care, shopping, other errands, the preparation of meals, light domestic duties as well as escorting people on trips around town.","84 Willowbrae Road, Edinburgh","EH8 7HW","0131 656 7310",enquiries@Call-InHomecare.co.uk,"<a href=""http://www.call-in-homecare.co.uk/page.php?ContentID=8"">Call In Homecare website</a>","<a href=""http://www.scswis.com/index.php?option=com_content&view=article&id=7644&Itemid=489&bereNextPageId=ServiceDetails_action.php&action=displayService&CaseNumber=CS2004084651"">Quality grades and reports</a>","55.95265991552359,-3.1456518173217773"
"Care UK","Services such as personal care, domestic support, practical assistance and companionship for a range of people.","540 Gorgie Road, Edinburgh","EH11 3AL","0131 300 0783",edinbcs@careuk.com,"<a href=""http://www.careuk.com/edinburgh"">Care UK Edinburgh website</a>","<a href=""http://www.scswis.com/index.php?option=com_content&view=article&id=7644&Itemid=489&bereNextPageId=ServiceDetails_action.php&action=displayService&CaseNumber=CS2008186248"">Quality grades and reports</a>","55.930885021117376,-3.2535839080810547"
"Carr Gomm","Services such as support with housework, making meals, shopping or laundry, personal care and getting to go out and about.","11 Harewood Road, Edinburgh","EH16 4NT","0131 228 6623",cahsmu@carrgomm.org,"<a href=""http://www.carrgomm.org/our-services/edinburgh"">Carr Gomm Edinburgh website</a>","<a href=""http://www.scswis.com/index.php?option=com_content&view=article&id=7644&Itemid=489&bereNextPageId=ServiceDetails_action.php&action=displayService&CaseNumber=CS2004075303"">Quality grades and reports</a>","55.934707328702636,-3.131403923034668"
"Crossreach - Threshold Edinburgh","Support with budgeting, cooking, personal care and travel, as well as social activities, education and employment.","Canal Court, 40 Craiglockhart Avenue, Edinburgh","EH14 1LT","0131 443 2225",info@crossreach.org.uk,"<a href=""http://www.crossreach.org.uk/threshold-edinburgh"">Theshold Edinburgh website</a>","<a href=""http://www.scswis.com/index.php?option=com_content&view=article&id=7644&Itemid=489&bereNextPageId=ServiceDetails_action.php&action=displayService&CaseNumber=CS2008187007"">Quality grades and reports</a>","55.92379231948149,-3.2448291778564453"
"Crossroads Caring Scotland Edinburgh","Services such as personal care, meal preparation and also, if assessed as a need, shopping and housework.","Springwell House, 1 Gorgie Road, Edinburgh","EH11 2LA","0131 202 5583",edinburgh@crossroads-scotland.co.uk,"<a href=""http://www.crossroads-scotland.co.uk/index.php?option=com_locator&view=location&layout=default&id=16&Itemid=8"">Crossroads Edinburgh website</a>","<a href=""http://www.scswis.com/index.php?option=com_content&view=article&id=7644&Itemid=489&bereNextPageId=ServiceDetails_action.php&action=displayService&CaseNumber=CS2007145327"">Quality grades and reports</a>","55.938649439588616,-3.228778839111328"
"Deaf Action","Support with tasks including shopping and money management.","49 Albany Street, Edinburgh","EH1 3QY","0131 556 3128",admin@deafaction.org,"<a href=""http://www.deafaction.org/"">Deaf Action website</a>","<a href=""http://www.scswis.com/index.php?option=com_content&view=article&id=7644&Itemid=489&bereNextPageId=ServiceDetails_action.php&action=displayService&CaseNumber=CS2008181608"">Quality grades and reports</a>","55.95748911046827,-3.189511299133301"
ELCAP,"Services such as personal care, help with medication, support to manage money, access work, or to take part in social activities and other things to do.","Woodbine Cottage, West Loan, Prestonpans, East Lothian","EH32 9WU","01875 814 114",dannyh@elcap.org,"<a href=""http://www.elcap.org/index.php"">ELCAP website</a>","<a href=""http://www.scswis.com/index.php?option=com_content&view=article&id=7644&Itemid=489&bereNextPageId=ServiceDetails_action.php&action=displayService&CaseNumber=CS2004082819"">Quality grades and reports</a>","55.957945570368686,-2.982316017150879"
"Elite Homecarers","Services such as assisting with housework and washing up, shopping and cooking, personal care and companionship.","35B High Street, South Queensferry, Edinburgh","EH30 9HD","0845 22 11 220",info@elitehomecarers.co.uk,"<a href=""http://www.elitehomecarers.com/"">Elite Homecarers website</a>","<a href=""http://www.scswis.com/index.php?option=com_content&view=article&id=7644&Itemid=489&bereNextPageId=ServiceDetails_action.php&action=displayService&CaseNumber=CS2004081256"">Quality grades and reports</a>","55.98977712020111,-3.395223319530487"
"ENABLE Scotland","Support with personal care, social activities, accessing the community, work and college.","1st floor, 1 Wester Shawfair, Danderhall, Midlothian","EH22 1FD","0131 663 9427",enabledirect@enable.org.uk,"<a href=""http://www.enable.org.uk/Pages/Services-es.aspx"">ENABLE Edinburgh website</a>","<a href=""http://www.scswis.com/index.php?option=com_content&view=article&id=7644&Itemid=489&bereNextPageId=ServiceDetails_action.php&action=displayService&CaseNumber=CS2004079759"">Quality grades and reports</a>","55.90701787560672,-3.098892867565155"
Freespace,"Services such as personal care, housework, meal preparation, medication, shopping and budgeting, going with you to appointment, relationships and social activities, and accessing your community.","28 Westfield Avenue, Edinburgh","EH11 2QH","0131 346 9030",info@freespacescotland.org.uk,"<a href=""http://www.freespacescotland.org.uk/independent-living/apply-type-of-support.php"">Freespace website</a>","<a href=""http://www.scswis.com/index.php?option=com_content&view=article&id=7644&Itemid=489&bereNextPageId=ServiceDetails_action.php&action=displayService&CaseNumber=CS2004076896"">Quality grades and reports</a>","55.93843311463828,-3.243541717529297"
"Hanover Housing Association Limited","Services such as helping with personal care, general cleaning, laundry and shopping, companionship and preparing meals.","95 McDonald Road, Edinburgh","EH7 4NS","0845 600 3659",careathome@hsha.org.uk,"<a href=""http://www.hsha.org.uk/careathome/Pages/default.aspx"">Hanover Housing Association Care at Home website</a>","<a href=""http://www.scswis.com/index.php?option=com_content&view=article&id=7644&Itemid=489&bereNextPageId=ServiceDetails_action.php&action=displayService&CaseNumber=CS2007142388"">Quality grades and reports</a>","55.96488790210438,-3.1868934631347656"
"Hazelhead Homecare","Services such as assisting with cleaning, preparing and cooking meals, laundry, ironing as well as shopping, washing and dressing, and companionship.","Unit 5, Newbridge Industrial Estate, Newbridge","EH28 8PJ","0131 333 0003",info@hazelhead.com,"<a href=""http://www.hazelhead.com/"">Hazelhead Homecare website</a>","<a href=""http://www.scswis.com/index.php?option=com_content&view=article&id=7644&Itemid=489&bereNextPageId=ServiceDetails_action.php&action=displayService&CaseNumber=CS2004070610"">Quality grades and reports</a>","55.931894723920415,-3.4148597717285156"
"Homecare Support","Services such as helping with washing, dressing and other personal care routines, preparing and cooking meals, cleaning and shopping.","152A Lower Granton Road, Edinburgh","EH5 1EY","0131 341 0010",edinburgh@homecaresupport.co.uk,"<a href=""http://www.homecaresupport.co.uk/services.html"">Homecare Support website</a>","<a href=""http://www.scswis.com/index.php?option=com_content&view=article&id=7644&Itemid=489&bereNextPageId=ServiceDetails_action.php&action=displayService&CaseNumber=CS2011299339"">Quality grades and reports</a>","55.9804255630536,-3.2214832305908203"
"Independent Living Services","Services such as personal care, bathing and showering, cleaning, laundry, meal preparation, shopping, companionship and outings.","5 South Gyle Crescent Lane, Edinburgh","EH12 9EG","0131 334 2356",enquiries@ilsscotland.com,"<a href=""http://www.ilsscotland.com/""> Independent Living Services website</a>","<a href=""http://www.scswis.com/index.php?option=com_content&view=article&id=7644&Itemid=489&bereNextPageId=ServiceDetails_action.php&action=displayService&CaseNumber=CS2011297037"">Quality grades and reports</a>","55.93050036550937,-3.302121162414551"
"Leonard Cheshire Disability","Services such as personal care, meal preparation, house work and shopping, travel and social activities.","Murrayburgh House, 17 Corstorphine Road, Edinburgh","EH12 6DD","0131 346 9040",info@lcdisabilty.org,"<a href=""http://www.lcdisability.org/?lid=21973"">Leonard Cheshire website</a>","<a href=""http://www.scswis.com/index.php?option=com_content&view=article&id=7644&Itemid=489&bereNextPageId=ServiceDetails_action.php&action=displayService&CaseNumber=CS2009235307"">Quality grades and reports</a>","55.94576345361833,-3.2385635375976562"
"Link Living","Support with cooking, shopping, budgeting, accessing college and work, social activities and travel.","2C New Mart Road, Edinburgh","EH14 1RL","0845  002 0819",enquiries@linkliving.org.uk,"<a href=""http://linkliving.org.uk/"">Link Living website</a>","<a href=""http://www.scswis.com/index.php?option=com_content&view=article&id=7644&Itemid=489&bereNextPageId=ServiceDetails_action.php&action=displayService&CaseNumber=CS2004061283"">Quality grades and reports</a>","55.926897226727874,-3.2497047632932663"
"Margarot Forrest","Services such as personalised care and support services, promoting independent living as an alternativeÂ to residential care.","Federation House, 222 Queensferry Road, Edinburgh","EH4 2BN","0131 346 1165",info@mfcare.co.uk,"<a href=""http://www.mfcare.co.uk/"">Margarot Forrest website</a>","<a href=""http://www.scswis.com/index.php?option=com_content&view=article&id=7644&Itemid=489&bereNextPageId=ServiceDetails_action.php&action=displayService&CaseNumber=CS2004075694"">Quality grades and reports</a>","55.95700862054742,-3.2485198974609375"
MEARS,"Services such as personal care, domestic chores, going shopping, attending appointments, taking gentle exercise or staying connected with family, friends etc.","Lower Ground Floor, 64 Albion Road, Edinburgh","EH7 5QZ","0131 656 6132",care.edinburgh@mearsgroup.co.uk,"<a href=""http://www.mearshomecare.co.uk/"">MEARS Homecare website</a>","<a href=""http://www.scswis.com/index.php?option=com_content&view=article&id=7644&Itemid=489&bereNextPageId=ServiceDetails_action.php&action=displayService&CaseNumber=CS2011300949"">Quality grades and reports</a>","55.96126074917347,-3.1671524047851562"
"Places for People","Services such as cooking meals, light household duties,Â cleaning and laundry services, shopping, washing and dressing.
","11 Harewood Road Edinburgh","EH16 4NT","0131 659 4702",careandsupportscotland@placesforpeople.co.uk,"<a href=""http://www.placesforpeople.co.uk/services/homecare.aspx"">Places for People website</a>","<a href=""http://www.scswis.com/index.php?option=com_content&view=article&id=7644&Itemid=489"">Quality grades and reports</a>",
"Prestige Nursing + Care","Services such as assisting withÂ live in care, personal care,Â domestic chores, going shopping, attending appointments, taking gentle exercise or staying connected with family, friends etc.
","64 Bridge Street, Newbridge, Edinburgh","EH28 8SH","0131 333 5111",edinburgh@prestigenursing.co.uk,"<a href=""http://www.prestige-nursing.co.uk/branch_profile.php?BranchID=84"">Prestige Nursing and Care Edinburgh website</a>","<a href=""http://www.scswis.com/index.php?option=com_content&view=article&id=7644&Itemid=489&bereNextPageId=ServiceDetails_action.php&action=displayService&CaseNumber=CS2010252997"">Quality grades and reports</a>","55.93913015737522,-3.4069204330444336"
"Richmond Fellowship","Support with personal care, household tasks, social activities, accessing the community, and specific support for a variety of conditions.","TRFS East Region,Unit 1 Alderstone Business Park, Macmillan Road,Livingston","EH54 7DF","01506 420 910",info@trfs.org.uk,"<a href=""http://www.trfs.org.uk/what_we_do"">The Richmond Fellowship Scotland website</a>","<a href=""http://www.scswis.com/index.php?option=com_content&view=article&id=7644&Itemid=489&bereNextPageId=ServiceDetails_action.php&action=displayService&CaseNumber=CS2004077052"">Quality grades and reports</a>","55.880871837763365,-3.529229164123535"
SAGA,"Services such as personal care, dressing, washing, bathing as well asÂ preparing meals and leisure activities.
","9 South Gyle Crescent, Edinburgh","EH12 9EB","0131 334 9014",edinburgh@saga.co.uk,"<a href=""http://www.sagahomecare.co.uk/"">SAGA Homecare website</a>","<a href=""http://www.scswis.com/index.php?option=com_content&view=article&id=7644&Itemid=489&bereNextPageId=ServiceDetails_action.php&action=displayService&CaseNumber=CS2008182807"">Quality grades and reports</a>","55.92999549922886,-3.299846649169922"
"Scottish Autism","Support with household tasks, social activties, and accessing education and work, including passing a driving test.","17d North High Street, Musselburgh","EH21 6JA","0845 300 9274",lothian@scottishautism.org,"<a href=""http://www.scottishautism.org/adult-services/lothian-and-borders/outreach/"">Scottish Autism website</a>","<a href=""http://www.scswis.com/index.php?option=com_content&view=article&id=7644&Itemid=489&bereNextPageId=ServiceDetails_action.php&action=displayService&CaseNumber=CS2004073440"">Quality grades and reports</a>","55.94408120340358,-3.0550146102905273"
SCRT,"Services such as helping with cooking meals, housework, personal care, shopping andÂ dementia care.","Unit 6, Straiton View, Straiton Business Park, Loanhead, Edinburgh","EH20 9QZ","0131 448 0883",scrt@scrt.org.uk,"<a href=""http://www.scrt.org.uk"">SCRT Homecare</a>","<a href=""http://www.scswis.com/index.php?option=com_content&view=article&id=7644&Itemid=489&bereNextPageId=ServiceDetails_action.php&action=displayService&CaseNumber=CS2004062662"">Quality grades and reports</a>","55.8830382463256,-3.162388801574707"
"Share Scotland","Services include personal care, managing money, going shopping, preparing meals, accessing the community, education and work, and social activities.","8A Silk Street, Paisley","PA1 1HG","0141 848 5068",enquiries@sharescotland.org.uk,"<a href=""http://www.sharescotland.org.uk/"">Share Scotland website</a>","<a href=""http://www.scswis.com/index.php?option=com_content&view=article&id=7644&Itemid=489&bereNextPageId=ServiceDetails_action.php&action=displayService&CaseNumber=CS2003053750"">Quality grades and reports</a>","55.84648197449283,-4.418778419494629"
"Shaw Healthcare","Services such as personal care, dressing, washing, bathing as well asÂ preparing meals and leisure activities.
","Unit 5, Newington Business Centre, Dalkeith Road Mews, Edinburgh","EH16 5DU","0800 902 0092",info@shaw.co.uk,"<a href=""http://www.shaw.co.uk/care-homes/newington-business-centre-shaw-community-living-edinburgh-branch/"">Shaw Healthcare website</a>","<a href=""http://www.scswis.com/index.php?option=com_content&view=article&id=7644&Itemid=489&bereNextPageId=ServiceDetails_action.php&action=displayService&CaseNumber=CS2011300605"">Quality grades and reports</a>","55.93360154263285,-3.166980743408203"
"St Josephs","Support with meal preparation and housework, travel and public transport, social activites and accessing the community.","72 Carnethie Street, Rosewell, Midlothian","EH24 9AW","0131 440 7200",info@stjosephsservices.co.uk,"<a href=""http://www.stjosephsservices.co.uk/index"">St Joseph's website</a>","<a href=""http://www.scswis.com/index.php?option=com_content&view=article&id=7644&Itemid=489&bereNextPageId=ServiceDetails_action.php&action=displayService&CaseNumber=CS2012312131"">Quality grades and reports</a>","55.85269752265769,-3.135523796081543"
"Thistle Foundation","Support tailored specifically to your needs.","Niddrie Mains Road, Midlothian","EH16 4EA","0131 661 3366",info@thistle.org.uk,"<a href=""http://www.thistle.org.uk/our-services/supported-living"">Thistle Foundation website</a>","<a href=""http://www.scswis.com/index.php?option=com_content&view=article&id=7644&Itemid=489&bereNextPageId=ServiceDetails_action.php&action=displayService&CaseNumber=CS2004080908"">Quality grades and reports</a>","55.931582199674025,-3.1313610076904297"
